start=new Date('2023-06-19T00:00:00.000Z').valueOf();
sats=[{"MEAN_ELEMENT_THEORY":"SGP4","SEMIMAJOR_AXIS":"6733.164","ECCENTRICITY":"0.00015610","LAUNCH_DATE":"2023-05-04","PERIAPSIS":"353.978","OBJECT_NAME":"STARLINK-6264","MEAN_MOTION_DDOT":"0.0000000000000","ELEMENT_SET_NO":"999","APOAPSIS":"356.080","TIME_SYSTEM":"UTC","NORAD_CAT_ID":"56429","GP_ID":"234250263","EPOCH":"2023-06-18T12:09:58.009824","SITE":"AFETR","TLE_LINE1":"1 56429U 23061BH  23169.50692141 -.00000954  00000-0 -38302-5 0  9998","BSTAR":"-0.00000383020000","PERIOD":"91.641","REV_AT_EPOCH":"712","DECAY_DATE":null,"CLASSIFICATION_TYPE":"U","MEAN_MOTION_DOT":"-0.00000954","MEAN_MOTION":"15.71353921","RCS_SIZE":"LARGE","FILE":"3936745","EPHEMERIS_TYPE":"0","OBJECT_ID":"2023-061BH","OBJECT_TYPE":"PAYLOAD","MEAN_ANOMALY":"105.8039","RA_OF_ASC_NODE":"198.8024","COUNTRY_CODE":"US","REF_FRAME":"TEME","CENTER_NAME":"EARTH","TLE_LINE2":"2 56429  42.9998 198.8024 0001561 254.2656 105.8039 15.71353921  7127","ARG_OF_PERICENTER":"254.2656","INCLINATION":"42.9998"},{"MEAN_MOTION_DOT":"-0.00947794","MEAN_MOTION":"15.50964233","RCS_SIZE":"LARGE","FILE":"3936745","OBJECT_ID":"2023-064A","EPHEMERIS_TYPE":"0","MEAN_ANOMALY":"121.4542","OBJECT_TYPE":"PAYLOAD","RA_OF_ASC_NODE":"135.6040","COUNTRY_CODE":"US","REF_FRAME":"TEME","CENTER_NAME":"EARTH","ARG_OF_PERICENTER":"263.6526","TLE_LINE2":"2 56448  69.9995 135.6040 0003407 263.6526 121.4542 15.50964233  1300","INCLINATION":"69.9995","NORAD_CAT_ID":"56448","EPOCH":"2023-06-18T22:00:00.999936","GP_ID":"234250025","SITE":"AFWTR","TLE_LINE1":"1 56448U 23064A   23169.91667824 -.00947794  00000-0 -17738-1 0  9995","BSTAR":"-0.01773800000000","PERIOD":"92.845","REV_AT_EPOCH":"130","CLASSIFICATION_TYPE":"U","DECAY_DATE":null,"OBJECT_NAME":"STARLINK-5990","MEAN_MOTION_DDOT":"0.0000000000000","ELEMENT_SET_NO":"999","APOAPSIS":"416.226","TIME_SYSTEM":"UTC","MEAN_ELEMENT_THEORY":"SGP4","SEMIMAJOR_AXIS":"6792.047","ECCENTRICITY":"0.00034070","PERIAPSIS":"411.597","LAUNCH_DATE":"2023-05-10"},{"APOAPSIS":"419.100","TIME_SYSTEM":"UTC","ELEMENT_SET_NO":"999","MEAN_MOTION_DDOT":"0.0000000000000","OBJECT_NAME":"STARLINK-5993","ECCENTRICITY":"0.00034130","PERIAPSIS":"414.462","LAUNCH_DATE":"2023-05-10","SEMIMAJOR_AXIS":"6794.916","MEAN_ELEMENT_THEORY":"SGP4","INCLINATION":"69.9993","ARG_OF_PERICENTER":"263.1973","TLE_LINE2":"2 56449  69.9993 135.6097 0003413 263.1973 117.1214 15.49981942  1301","REF_FRAME":"TEME","CENTER_NAME":"EARTH","RA_OF_ASC_NODE":"135.6097","OBJECT_TYPE":"PAYLOAD","MEAN_ANOMALY":"117.1214","COUNTRY_CODE":"US","OBJECT_ID":"2023-064B","EPHEMERIS_TYPE":"0","RCS_SIZE":"LARGE","FILE":"3936745","MEAN_MOTION":"15.49981942","MEAN_MOTION_DOT":"-0.00950096","DECAY_DATE":null,"CLASSIFICATION_TYPE":"U","REV_AT_EPOCH":"130","PERIOD":"92.904","TLE_LINE1":"1 56449U 23064B   23169.91667824 -.00950096  00000-0 -18418-1 0  9991","BSTAR":"-0.01841800000000","SITE":"AFWTR","NORAD_CAT_ID":"56449","GP_ID":"234249919","EPOCH":"2023-06-18T22:00:00.999936"},{"SEMIMAJOR_AXIS":"6791.325","MEAN_ELEMENT_THEORY":"SGP4","ECCENTRICITY":"0.00034790","LAUNCH_DATE":"2023-05-10","PERIAPSIS":"410.827","MEAN_MOTION_DDOT":"0.0000000000000","ELEMENT_SET_NO":"999","OBJECT_NAME":"STARLINK-5970","APOAPSIS":"415.552","TIME_SYSTEM":"UTC","SITE":"AFWTR","NORAD_CAT_ID":"56450","GP_ID":"234250324","EPOCH":"2023-06-18T22:00:00.999936","CLASSIFICATION_TYPE":"U","DECAY_DATE":null,"REV_AT_EPOCH":"130","PERIOD":"92.831","TLE_LINE1":"1 56450U 23064C   23169.91667824 -.00970104  00000-0 -18032-1 0  9997","BSTAR":"-0.01803200000000","EPHEMERIS_TYPE":"0","OBJECT_ID":"2023-064C","RCS_SIZE":"LARGE","FILE":"3936745","MEAN_MOTION":"15.51211506","MEAN_MOTION_DOT":"-0.00970104","INCLINATION":"69.9995","ARG_OF_PERICENTER":"266.2844","TLE_LINE2":"2 56450  69.9995 135.6030 0003479 266.2844 119.7347 15.51211506  1305","REF_FRAME":"TEME","CENTER_NAME":"EARTH","OBJECT_TYPE":"PAYLOAD","RA_OF_ASC_NODE":"135.6030","MEAN_ANOMALY":"119.7347","COUNTRY_CODE":"US"},{"MEAN_MOTION_DDOT":"0.0000000000000","ELEMENT_SET_NO":"999","OBJECT_NAME":"STARLINK-5985","APOAPSIS":"418.329","TIME_SYSTEM":"UTC","SEMIMAJOR_AXIS":"6794.138","MEAN_ELEMENT_THEORY":"SGP4","ECCENTRICITY":"0.00034230","LAUNCH_DATE":"2023-05-10","PERIAPSIS":"413.678","EPHEMERIS_TYPE":"0","OBJECT_ID":"2023-064D","RCS_SIZE":"LARGE","FILE":"3936745","MEAN_MOTION":"15.50248016","MEAN_MOTION_DOT":"-0.00965894","INCLINATION":"69.9998","ARG_OF_PERICENTER":"266.7720","TLE_LINE2":"2 56451  69.9998 135.6070 0003423 266.7720 114.9300 15.50248016  1301","REF_FRAME":"TEME","CENTER_NAME":"EARTH","OBJECT_TYPE":"PAYLOAD","MEAN_ANOMALY":"114.9300","RA_OF_ASC_NODE":"135.6070","COUNTRY_CODE":"US","SITE":"AFWTR","NORAD_CAT_ID":"56451","EPOCH":"2023-06-18T22:00:00.999936","GP_ID":"234249976","CLASSIFICATION_TYPE":"U","DECAY_DATE":null,"REV_AT_EPOCH":"130","PERIOD":"92.888","TLE_LINE1":"1 56451U 23064D   23169.91667824 -.00965894  00000-0 -18575-1 0  9990","BSTAR":"-0.01857500000000"},{"MEAN_MOTION_DDOT":"0.0000000000000","ELEMENT_SET_NO":"999","OBJECT_NAME":"STARLINK-5986","APOAPSIS":"417.541","TIME_SYSTEM":"UTC","SEMIMAJOR_AXIS":"6793.449","MEAN_ELEMENT_THEORY":"SGP4","ECCENTRICITY":"0.00032780","LAUNCH_DATE":"2023-05-10","PERIAPSIS":"413.087","MEAN_MOTION":"15.50483989","MEAN_MOTION_DOT":"-0.00957433","EPHEMERIS_TYPE":"0","OBJECT_ID":"2023-064E","RCS_SIZE":"LARGE","FILE":"3936745","REF_FRAME":"TEME","CENTER_NAME":"EARTH","OBJECT_TYPE":"PAYLOAD","RA_OF_ASC_NODE":"135.6062","MEAN_ANOMALY":"116.4752","COUNTRY_CODE":"US","INCLINATION":"69.9996","ARG_OF_PERICENTER":"266.4601","TLE_LINE2":"2 56452  69.9996 135.6062 0003278 266.4601 116.4752 15.50483989  1302","NORAD_CAT_ID":"56452","GP_ID":"234250265","EPOCH":"2023-06-18T22:00:00.999936","SITE":"AFWTR","PERIOD":"92.874","TLE_LINE1":"1 56452U 23064E   23169.91667824 -.00957433  00000-0 -18245-1 0  9995","BSTAR":"-0.01824500000000","CLASSIFICATION_TYPE":"U","DECAY_DATE":null,"REV_AT_EPOCH":"130"},{"APOAPSIS":"416.925","TIME_SYSTEM":"UTC","OBJECT_NAME":"STARLINK-5935","MEAN_MOTION_DDOT":"0.0000000000000","ELEMENT_SET_NO":"999","ECCENTRICITY":"0.00034520","LAUNCH_DATE":"2023-05-10","PERIAPSIS":"412.236","MEAN_ELEMENT_THEORY":"SGP4","SEMIMAJOR_AXIS":"6792.716","ARG_OF_PERICENTER":"265.8071","TLE_LINE2":"2 56453  69.9999 135.6038 0003452 265.8071 118.2735 15.50735086  1306","INCLINATION":"69.9999","OBJECT_TYPE":"PAYLOAD","RA_OF_ASC_NODE":"135.6038","MEAN_ANOMALY":"118.2735","COUNTRY_CODE":"US","REF_FRAME":"TEME","CENTER_NAME":"EARTH","RCS_SIZE":"LARGE","FILE":"3936745","OBJECT_ID":"2023-064F","EPHEMERIS_TYPE":"0","MEAN_MOTION_DOT":"-0.00964859","MEAN_MOTION":"15.50735086","REV_AT_EPOCH":"130","CLASSIFICATION_TYPE":"U","DECAY_DATE":null,"TLE_LINE1":"1 56453U 23064F   23169.91667824 -.00964859  00000-0 -18234-1 0  9994","BSTAR":"-0.01823400000000","PERIOD":"92.859","SITE":"AFWTR","NORAD_CAT_ID":"56453","GP_ID":"234250159","EPOCH":"2023-06-18T22:00:00.999936"},{"APOAPSIS":"415.458","TIME_SYSTEM":"UTC","ELEMENT_SET_NO":"999","MEAN_MOTION_DDOT":"0.0000000000000","OBJECT_NAME":"STARLINK-5959","ECCENTRICITY":"0.00036270","LAUNCH_DATE":"2023-05-10","PERIAPSIS":"410.531","SEMIMAJOR_AXIS":"6791.129","MEAN_ELEMENT_THEORY":"SGP4","INCLINATION":"69.9994","TLE_LINE2":"2 56454  69.9994 135.5993 0003627 262.9989 126.3919 15.51278436  1307","ARG_OF_PERICENTER":"262.9989","REF_FRAME":"TEME","CENTER_NAME":"EARTH","RA_OF_ASC_NODE":"135.5993","OBJECT_TYPE":"PAYLOAD","MEAN_ANOMALY":"126.3919","COUNTRY_CODE":"US","OBJECT_ID":"2023-064G","EPHEMERIS_TYPE":"0","RCS_SIZE":"LARGE","FILE":"3936745","MEAN_MOTION":"15.51278436","MEAN_MOTION_DOT":"-0.00132738","CLASSIFICATION_TYPE":"U","DECAY_DATE":null,"REV_AT_EPOCH":"130","PERIOD":"92.827","TLE_LINE1":"1 56454U 23064G   23169.91667824 -.00132738  00000-0 -22904-2 0  9998","BSTAR":"-0.00229040000000","SITE":"AFWTR","NORAD_CAT_ID":"56454","EPOCH":"2023-06-18T22:00:00.999936","GP_ID":"234250085"},{"TIME_SYSTEM":"UTC","APOAPSIS":"415.592","ELEMENT_SET_NO":"999","MEAN_MOTION_DDOT":"0.0000000000000","OBJECT_NAME":"STARLINK-5987","PERIAPSIS":"410.682","LAUNCH_DATE":"2023-05-10","ECCENTRICITY":"0.00036150","SEMIMAJOR_AXIS":"6791.272","MEAN_ELEMENT_THEORY":"SGP4","CENTER_NAME":"EARTH","REF_FRAME":"TEME","COUNTRY_CODE":"US","MEAN_ANOMALY":"128.5024","OBJECT_TYPE":"PAYLOAD","RA_OF_ASC_NODE":"135.5969","INCLINATION":"69.9999","TLE_LINE2":"2 56455  69.9999 135.5969 0003615 261.7426 128.5024 15.51229673  1306","ARG_OF_PERICENTER":"261.7426","MEAN_MOTION":"15.51229673","MEAN_MOTION_DOT":"0.00005552","EPHEMERIS_TYPE":"0","OBJECT_ID":"2023-064H","FILE":"3936745","RCS_SIZE":"LARGE","PERIOD":"92.830","BSTAR":"0.00009724000000","TLE_LINE1":"1 56455U 23064H   23169.91667824  .00005552  00000-0  97240-4 0  9997","DECAY_DATE":null,"CLASSIFICATION_TYPE":"U","REV_AT_EPOCH":"130","GP_ID":"234250216","EPOCH":"2023-06-18T22:00:00.999936","NORAD_CAT_ID":"56455","SITE":"AFWTR"},{"MEAN_ELEMENT_THEORY":"SGP4","SEMIMAJOR_AXIS":"6790.776","PERIAPSIS":"410.262","LAUNCH_DATE":"2023-05-10","ECCENTRICITY":"0.00035030","OBJECT_NAME":"STARLINK-5995","MEAN_MOTION_DDOT":"0.0000000000000","ELEMENT_SET_NO":"999","TIME_SYSTEM":"UTC","APOAPSIS":"415.020","GP_ID":"234250026","EPOCH":"2023-06-18T22:00:00.999936","NORAD_CAT_ID":"56456","SITE":"AFWTR","BSTAR":"-0.01664900000000","TLE_LINE1":"1 56456U 23064J   23169.91667824 -.00894922  00000-0 -16649-1 0  9998","PERIOD":"92.819","REV_AT_EPOCH":"130","CLASSIFICATION_TYPE":"U","DECAY_DATE":null,"MEAN_MOTION_DOT":"-0.00894922","MEAN_MOTION":"15.51399428","FILE":"3936745","RCS_SIZE":"LARGE","OBJECT_ID":"2023-064J","EPHEMERIS_TYPE":"0","COUNTRY_CODE":"US","OBJECT_TYPE":"PAYLOAD","RA_OF_ASC_NODE":"135.6016","MEAN_ANOMALY":"119.0502","CENTER_NAME":"EARTH","REF_FRAME":"TEME","ARG_OF_PERICENTER":"267.8039","TLE_LINE2":"2 56456  69.9995 135.6016 0003503 267.8039 119.0502 15.51399428  1302","INCLINATION":"69.9995"}];
